{
  "type": "FeatureCollection",
  "features": [
    {
      "type": "Feature",
      "properties": {
        "norad_id": 36550,
        "name": "COSMOS 2251 DEB",
        "group": "cosmos-2251-debris",
        "lat": -29.96553599192833,
        "lon": 158.8467551018883,
        "alt_km": 827.882069662046,
        "timestamp": "2025-12-26T05:31:12.903826+00:00",
        "meta_object_name": "COSMOS 2251 DEB",
        "meta_object_id": "1993-036BDL",
        "meta_epoch": "2025-12-23T05:19:51.847104",
        "meta_mean_motion": 14.27229725,
        "meta_eccentricity": 0.00778519,
        "meta_inclination": 74.0443,
        "meta_ra_of_asc_node": 173.7801,
        "meta_arg_of_pericenter": 222.1192,
        "meta_mean_anomaly": 137.3958,
        "meta_ephemeris_type": 0,
        "meta_classification_type": "U",
        "meta_norad_cat_id": 36550,
        "meta_element_set_no": 999,
        "meta_rev_at_epoch": 84745,
        "meta_bstar": 0.00062346046,
        "meta_mean_motion_dot": 1.548e-05,
        "meta_mean_motion_ddot": 0,
        "tle_line1": "1 36550U 93036BDL 25357.22212786  .00001548  00000+0  62346-3 0  9993",
        "tle_line2": "2 36550  74.0443 173.7801 0077851 222.1192 137.3958 14.27229725847452"
      },
      "geometry": {
        "type": "Point",
        "coordinates": [
          158.8467551018883,
          -29.96553599192833
        ]
      }
    },
    {
      "type": "Feature",
      "properties": {
        "norad_id": 36551,
        "name": "COSMOS 2251 DEB",
        "group": "cosmos-2251-debris",
        "lat": 73.8646432974807,
        "lon": 79.19142394201637,
        "alt_km": 582.7733204772339,
        "timestamp": "2025-12-26T05:31:12.903836+00:00",
        "meta_object_name": "COSMOS 2251 DEB",
        "meta_object_id": "1993-036BDM",
        "meta_epoch": "2025-12-23T08:25:21.362880",
        "meta_mean_motion": 15.02881194,
        "meta_eccentricity": 0.00509794,
        "meta_inclination": 73.8872,
        "meta_ra_of_asc_node": 352.8451,
        "meta_arg_of_pericenter": 300.1612,
        "meta_mean_anomaly": 59.4529,
        "meta_ephemeris_type": 0,
        "meta_classification_type": "U",
        "meta_norad_cat_id": 36551,
        "meta_element_set_no": 999,
        "meta_rev_at_epoch": 67091,
        "meta_bstar": 0.0013038883,
        "meta_mean_motion_dot": 0.00017997,
        "meta_mean_motion_ddot": 0,
        "tle_line1": "1 36551U 93036BDM 25357.35094170  .00017997  00000+0  13039-2 0  9992",
        "tle_line2": "2 36551  73.8872 352.8451 0050979 300.1612  59.4529 15.02881194670914"
      },
      "geometry": {
        "type": "Point",
        "coordinates": [
          79.19142394201637,
          73.8646432974807
        ]
      }
    },
    {
      "type": "Feature",
      "properties": {
        "norad_id": 36557,
        "name": "COSMOS 2251 DEB",
        "group": "cosmos-2251-debris",
        "lat": -20.664647101712152,
        "lon": 93.42519870523331,
        "alt_km": 636.397584243944,
        "timestamp": "2025-12-26T05:31:12.903846+00:00",
        "meta_object_name": "COSMOS 2251 DEB",
        "meta_object_id": "1993-036BDT",
        "meta_epoch": "2025-12-25T13:22:56.127648",
        "meta_mean_motion": 14.7886677,
        "meta_eccentricity": 0.0022188,
        "meta_inclination": 73.9787,
        "meta_ra_of_asc_node": 100.973,
        "meta_arg_of_pericenter": 254.7091,
        "meta_mean_anomaly": 105.1632,
        "meta_ephemeris_type": 0,
        "meta_classification_type": "U",
        "meta_norad_cat_id": 36557,
        "meta_element_set_no": 999,
        "meta_rev_at_epoch": 34086,
        "meta_bstar": 0.0038011,
        "meta_mean_motion_dot": 0.00028197,
        "meta_mean_motion_ddot": 0,
        "tle_line1": "1 36557U 93036BDT 25359.55759407  .00028197  00000+0  38011-2 0  9994",
        "tle_line2": "2 36557  73.9787 100.9730 0022188 254.7091 105.1632 14.78866770340861"
      },
      "geometry": {
        "type": "Point",
        "coordinates": [
          93.42519870523331,
          -20.664647101712152
        ]
      }
    },
    {
      "type": "Feature",
      "properties": {
        "norad_id": 36558,
        "name": "COSMOS 2251 DEB",
        "group": "cosmos-2251-debris",
        "lat": -50.65074096886855,
        "lon": -30.574993924577328,
        "alt_km": 705.8444648617042,
        "timestamp": "2025-12-26T05:31:12.903856+00:00",
        "meta_object_name": "COSMOS 2251 DEB",
        "meta_object_id": "1993-036BDU",
        "meta_epoch": "2025-12-25T15:15:12.808224",
        "meta_mean_motion": 14.55453872,
        "meta_eccentricity": 0.0012585,
        "meta_inclination": 74.0432,
        "meta_ra_of_asc_node": 130.1267,
        "meta_arg_of_pericenter": 219.2575,
        "meta_mean_anomaly": 140.7676,
        "meta_ephemeris_type": 0,
        "meta_classification_type": "U",
        "meta_norad_cat_id": 36558,
        "meta_element_set_no": 999,
        "meta_rev_at_epoch": 85456,
        "meta_bstar": 0.0010262,
        "meta_mean_motion_dot": 4.441e-05,
        "meta_mean_motion_ddot": 0,
        "tle_line1": "1 36558U 93036BDU 25359.63556491  .00004441  00000+0  10262-2 0  9996",
        "tle_line2": "2 36558  74.0432 130.1267 0012585 219.2575 140.7676 14.55453872854564"
      },
      "geometry": {
        "type": "Point",
        "coordinates": [
          -30.574993924577328,
          -50.65074096886855
        ]
      }
    },
    {
      "type": "Feature",
      "properties": {
        "norad_id": 36559,
        "name": "COSMOS 2251 DEB",
        "group": "cosmos-2251-debris",
        "lat": 28.057604854437777,
        "lon": -4.524786761302113,
        "alt_km": 722.1756251593579,
        "timestamp": "2025-12-26T05:31:12.903866+00:00",
        "meta_object_name": "COSMOS 2251 DEB",
        "meta_object_id": "1993-036BDV",
        "meta_epoch": "2025-12-25T22:30:17.877888",
        "meta_mean_motion": 13.95341265,
        "meta_eccentricity": 0.02626068,
        "meta_inclination": 74.131,
        "meta_ra_of_asc_node": 347.2543,
        "meta_arg_of_pericenter": 16.1375,
        "meta_mean_anomaly": 344.792,
        "meta_ephemeris_type": 0,
        "meta_classification_type": "U",
        "meta_norad_cat_id": 36559,
        "meta_element_set_no": 999,
        "meta_rev_at_epoch": 81278,
        "meta_bstar": 0.0044341519,
        "meta_mean_motion_dot": 7.996e-05,
        "meta_mean_motion_ddot": 0,
        "tle_line1": "1 36559U 93036BDV 25359.93770692  .00007996  00000+0  44342-2 0  9995",
        "tle_line2": "2 36559  74.1310 347.2543 0262606  16.1375 344.7920 13.95341265812783"
      },
      "geometry": {
        "type": "Point",
        "coordinates": [
          -4.524786761302113,
          28.057604854437777
        ]
      }
    },
    {
      "type": "Feature",
      "properties": {
        "norad_id": 36614,
        "name": "COSMOS 2251 DEB",
        "group": "cosmos-2251-debris",
        "lat": 47.53318714823073,
        "lon": -49.43464690202724,
        "alt_km": 686.9317335068072,
        "timestamp": "2025-12-26T05:31:12.903876+00:00",
        "meta_object_name": "COSMOS 2251 DEB",
        "meta_object_id": "1993-036BEC",
        "meta_epoch": "2025-12-25T19:03:45.124128",
        "meta_mean_motion": 14.60436705,
        "meta_eccentricity": 0.00155454,
        "meta_inclination": 74.0219,
        "meta_ra_of_asc_node": 149.6407,
        "meta_arg_of_pericenter": 219.5991,
        "meta_mean_anomaly": 140.404,
        "meta_ephemeris_type": 0,
        "meta_classification_type": "U",
        "meta_norad_cat_id": 36614,
        "meta_element_set_no": 999,
        "meta_rev_at_epoch": 65803,
        "meta_bstar": 0.0017518768,
        "meta_mean_motion_dot": 8.483e-05,
        "meta_mean_motion_ddot": 0,
        "tle_line1": "1 36614U 93036BEC 25359.79427227  .00008483  00000+0  17519-2 0  9992",
        "tle_line2": "2 36614  74.0219 149.6407 0015545 219.5991 140.4040 14.60436705658033"
      },
      "geometry": {
        "type": "Point",
        "coordinates": [
          -49.43464690202724,
          47.53318714823073
        ]
      }
    },
    {
      "type": "Feature",
      "properties": {
        "norad_id": 36622,
        "name": "COSMOS 2251 DEB",
        "group": "cosmos-2251-debris",
        "lat": -61.83601471328936,
        "lon": -28.602647922965676,
        "alt_km": 599.6160090377862,
        "timestamp": "2025-12-26T05:31:12.903886+00:00",
        "meta_object_name": "COSMOS 2251 DEB",
        "meta_object_id": "1993-036BEL",
        "meta_epoch": "2025-12-24T01:59:12.142752",
        "meta_mean_motion": 14.76299213,
        "meta_eccentricity": 0.00689018,
        "meta_inclination": 74.0149,
        "meta_ra_of_asc_node": 123.2338,
        "meta_arg_of_pericenter": 256.4441,
        "meta_mean_anomaly": 102.9052,
        "meta_ephemeris_type": 0,
        "meta_classification_type": "U",
        "meta_norad_cat_id": 36622,
        "meta_element_set_no": 999,
        "meta_rev_at_epoch": 66917,
        "meta_bstar": 0.00077654532,
        "meta_mean_motion_dot": 5.567e-05,
        "meta_mean_motion_ddot": 0,
        "tle_line1": "1 36622U 93036BEL 25358.08277943  .00005567  00000+0  77655-3 0  9998",
        "tle_line2": "2 36622  74.0149 123.2338 0068901 256.4441 102.9052 14.76299213669170"
      },
      "geometry": {
        "type": "Point",
        "coordinates": [
          -28.602647922965676,
          -61.83601471328936
        ]
      }
    }
  ]
}